CAS-2T & KS-1Q          
1 41847U 16066G   20306.41270489  .00000188  00000-0  38529-4 0  9997
2 41847  98.6373 358.1943 0365665 180.5636 179.5190 14.38105114209107
NAYIF-1 (EO-88)         
1 42017U 17008BX  20306.40470655  .00003065  00000-0  11869-3 0  9994
2 42017  97.3463  11.8934 0005945 182.2179 177.9035 15.26918459206445
ZHUHAI-1 02 (CAS-4B)    
1 42759U 17034B   20306.50131212  .00000437  00000-0  39900-4 0  9997
2 42759  43.0194 354.0212 0009736 181.9410 319.3550 15.09928059186689
ZHUHAI-1 01 (CAS-4A)    
1 42761U 17034D   20306.50504007  .00000416  00000-0  38568-4 0  9992
2 42761  43.0200 353.2097 0010165 182.8491 320.8738 15.10007279186688
MAX VALIER SAT          
1 42778U 17036P   20306.42099482  .00001689  00000-0  74929-4 0  9993
2 42778  97.2890 356.1631 0010465 258.3792 101.6270 15.22875940186579
RADFXSAT (FOX-1B)       
1 43017U 17073E   20306.52458058  .00001553  00000-0  12588-3 0  9992
2 43017  97.7151 213.4212 0255706 323.9740  34.4468 14.79110233159426
FOX-1D (AO-92)          
1 43137U 18004AC  20306.42647476  .00001912  00000-0  80891-4 0  9995
2 43137  97.4334  16.5838 0007616 299.4407  60.6070 15.24407560155910
DIWATA-2B               
1 43678U 18084H   20306.58838827  .00000322  00000-0  37763-4 0  9996
2 43678  97.8991  65.1099 0011402  83.8088 276.4391 14.91667410109467
ES'HAIL 2               
1 43700U 18090A   20306.32063154  .00000154  00000-0  00000+0 0  9996
2 43700   0.0082 216.7808 0002205  31.9860 293.5518  1.00274181  7323
FOX-1CLIFF (AO-95)      
1 43770U 18099N   20306.44704385  .00000152  00000-0  19086-4 0  9990
2 43770  97.6935  15.3514 0015976  99.2427 261.0602 14.95079490104383
ITASAT 1                
1 43786U 18099AE  20306.21271396  .00000876  00000-0  84270-4 0  9993
2 43786  97.6952  15.6387 0016740  94.2496 266.0638 14.95405967104376
JY1SAT (JO-97)          
1 43803U 18099AX  20306.14347771  .00000998  00000-0  94866-4 0  9993
2 43803  97.6912  15.3590 0016698  94.7890 265.5238 14.95600497104364
PSAT2 (NO-104)          
1 44354U 19036R   20306.02527886  .00017511  00000-0  25137-3 0  9994
2 44354  28.5304 202.0687 0353934 332.2561  25.9553 15.06079281 74412
BRICSAT2 (NO-103)       
1 44355U 19036S   20306.36973972  .00031995  00000-0  42594-3 0  9991
2 44355  28.5284 182.3382 0323054   4.3272 356.0016 15.13988617 74645
JAISAT-1                
1 44419U 19038F   20306.46672150  .00001796  00000-0  10487-3 0  9991
2 44419  97.5567 266.5988 0022138  22.6294 337.5908 15.13026718 73311
DUCHIFAT-3              
1 44854U 19089C   20306.50324636  .00000664  00000-0  59971-4 0  9993
2 44854  36.9675   8.3572 0007404  84.3620 275.7962 14.99177036 48878
RS-44 & BREEZE-KM R/B   
1 44909U 19096E   20306.41202456  .00000004  00000-0 -21966-4 0  9999
2 44909  82.5195 264.2978 0216242 266.3260  91.3091 12.79708582 39709
ORBITAL FACTORY 2 (OF-2)
1 45113U 19071C   20306.32874491  .00005152  00000-0  16553-3 0  9997
2 45113  51.6441  62.1020 0012774 188.6740 171.4023 15.33937703 42132
HUSKYSAT-1              
1 45119U 19071J   20306.48482909  .00003910  00000-0  12777-3 0  9993
2 45119  51.6430  60.8943 0012091 185.2678 174.8179 15.34107139 42154
SALSAT                  
1 46495U 20068K   20306.56148670  .00001197  00000-0  92678-4 0  9996
2 46495  97.6698 239.7310 0017845 121.1922 239.1058 15.03244567  5092
